AMC-1 (GE-1)            
1 24315U 96054A   23164.96278744  .00000079  00000+0  00000+0 0  9996
2 24315   6.4779  69.9835 0001813 211.9428 176.3987  0.99505857 98006
AMC-3 (GE-3)            
1 24936U 97050A   23165.45241270 -.00000262  00000+0  00000+0 0  9996
2 24936   5.4351  75.9930 0002652   4.4075 272.9357  1.00271351 94437
ASTRA 1G                
1 25071U 97076A   23163.92135111  .00000111  00000+0  00000+0 0  9993
2 25071   6.9511  64.4330 0004387   9.5025 178.1204  1.00273791 93478
ASTRA 2A                
1 25462U 98050A   23165.43413212  .00000069  00000+0  00000+0 0  9991
2 25462   4.3144  81.6449 0002961 353.7262  40.5609  1.00270751 90720
NSS-11 (AAP-1)          
1 26554U 00059A   23165.38261157  .00000030  00000+0  00000+0 0  9997
2 26554   0.0234 314.3363 0001906 124.9581 136.8606  1.00283067 83156
AMC-6 (GE-6)            
1 26580U 00067A   23165.47022340  .00000107  00000+0  00000+0 0  9999
2 26580   0.0107 344.6993 0002494 108.0619 200.0196  1.00269642 82966
ASTRA 2C                
1 26853U 01025A   23165.45241362 -.00000260  00000+0  00000+0 0  9993
2 26853   5.4578  75.8081 0002735 357.7030 279.3640  1.00272463 80550
NSS-7                   
1 27414U 02019A   23165.12618852 -.00000161  00000+0  00000+0 0  9997
2 27414   6.7475  68.2312 0002571  14.0785 205.2642  1.00271451 77546
NSS-6                   
1 27603U 02057A   23164.81561703  .00000108  00000+0  00000+0 0  9996
2 27603   2.5301  87.4627 0002932 351.2117 307.2395  1.00272212 75010
AMC-11 (GE-11)          
1 28252U 04017A   23165.33093641 -.00000047  00000+0  00000+0 0  9997
2 28252   0.0392  62.9277 0000995  25.5537 181.9290  1.00272565 69685
AMC-15                  
1 28446U 04041A   23164.97186101 -.00000087  00000+0  00000+0 0  9996
2 28446   0.0262 318.1624 0002464 134.7691  53.8870  1.00272313 68327
NSS-10 (AMC-12)         
1 28526U 05003A   23164.98530954 -.00000250  00000+0  00000+0 0  9996
2 28526   3.6870  83.4217 0002891 341.1988 154.6603  1.00273084 67292
ASTRA 1KR               
1 29055U 06012A   23165.13991490  .00000122  00000+0  00000+0 0  9996
2 29055   0.0621 280.3452 0001497 222.1934 189.1842  1.00275681 62720
AMC-18                  
1 29644U 06054B   23165.17983132 -.00000213  00000+0  00000+0 0  9996
2 29644   0.0167  23.7611 0002098  62.1639 158.0221  1.00268798 60508
ASTRA 1L                
1 31306U 07016A   23165.19563481  .00000122  00000+0  00000+0 0  9994
2 31306   0.0723 305.2777 0002682  79.7831 326.7945  1.00274772 59023
ASTRA 4A (SIRIUS 4)     
1 32299U 07057A   23165.09840771  .00000034  00000+0  00000+0 0  9992
2 32299   0.0202  40.0082 0002459  37.7007 224.6683  1.00269656 56938
AMC-21                  
1 33275U 08038B   23165.42276522  .00000039  00000+0  00000+0 0  9996
2 33275   0.1085 102.0540 0003118 350.3530 197.3310  1.00272464 54447
ASTRA 1M                
1 33436U 08057A   23165.10952243  .00000122  00000+0  00000+0 0  9995
2 33436   0.0405  90.6809 0004783  22.5107 207.5546  1.00271543 53450
CIEL-2                  
1 33453U 08063A   23165.56334647  .00000061  00000+0  00000+0 0  9995
2 33453   0.0406 133.7328 0002936 329.6969 233.1296  1.00273567 53118
NSS-9                   
1 33749U 09008A   23164.81413522  .00000073  00000+0  00000+0 0  9993
2 33749   0.0224 323.4050 0002022 110.7441 303.8589  1.00269719 52544
SES-7 (PROTOSTAR 2)     
1 34941U 09027A   23165.37274223 -.00000342  00000+0  00000+0 0  9994
2 34941   0.0571  83.9803 0000729  98.3153 322.5331  1.00270258 51598
NSS-12                  
1 36032U 09058A   23164.76299455  .00000073  00000+0  00000+0 0  9997
2 36032   0.0136 329.6728 0002581 117.2503 146.5493  1.00272293 49896
SES-1                   
1 36516U 10016A   23164.82930191 -.00000112  00000+0  00000+0 0  9991
2 36516   0.0129 338.8987 0002470 102.9785  17.5377  1.00271869 48024
ASTRA 3B                
1 36581U 10021A   23164.85407380  .00000139  00000+0  00000+0 0  9999
2 36581   0.0574 326.8379 0004330 119.4612 146.5416  1.00272714 47858
SES-3                   
1 37748U 11035A   23165.45832973 -.00000099  00000+0  00000+0 0  9994
2 37748   0.0199  17.6722 0003121  62.1188 244.6972  1.00273193 43678
ASTRA 1N                
1 37775U 11041A   23164.78153557  .00000121  00000+0  00000+0 0  9995
2 37775   0.0573  30.8709 0005112  31.9763 139.5084  1.00270886 33504
SES-2                   
1 37809U 11049A   23164.83210826 -.00000194  00000+0  00000+0 0  9991
2 37809   0.0199 319.1737 0002451 122.6107  32.6419  1.00272271 42935
QUETZSAT 1              
1 37826U 11054A   23165.44915978 -.00000239  00000+0  00000+0 0  9994
2 37826   0.0126 343.3443 0002014 105.3831 258.4557  1.00271788 43084
SES-4                   
1 38087U 12007A   23165.21229962 -.00000166  00000+0  00000+0 0  9998
2 38087   0.0237  43.2036 0002438  46.0911 227.3753  1.00270044 41468
SES-5                   
1 38652U 12036A   23165.20118921  .00000036  00000+0  00000+0 0  9994
2 38652   0.0447 304.0565 0001940 140.8860 254.6965  1.00271939 40053
ASTRA 2F                
1 38778U 12051A   23165.50010831  .00000153  00000+0  00000+0 0  9994
2 38778   0.0495 229.9764 0001394 307.6454 293.1284  1.00274453 39274
SES-6                   
1 39172U 13026A   23165.17827095 -.00000259  00000+0  00000+0 0  9995
2 39172   0.0232  31.9598 0002341  53.5810 200.3478  1.00271113 36704
O3B FM5                 
1 39188U 13031A   23164.87941690 -.00000021  00000+0  00000+0 0  9999
2 39188   0.0510 346.0220 0003034  97.7348 276.2771  5.00115558182139
O3B FM4                 
1 39189U 13031B   23164.73528255 -.00000020  00000+0  00000+0 0  9992
2 39189   0.0449  18.8047 0002983  65.2398 275.9888  5.00116038182059
O3B FM2                 
1 39190U 13031C   23164.62717474 -.00000020  00000+0  00000+0 0  9995
2 39190   0.0445  25.3913 0002858  57.1516 277.4888  5.00115256182109
O3B PFM                 
1 39191U 13031D   23165.45268997 -.00000021  00000+0  00000+0 0  9990
2 39191   0.0487 355.9488 0002646  85.4114 278.6691  5.00116021182159
ASTRA 2E                
1 39285U 13056A   23164.85503260  .00000152  00000+0  00000+0 0  9993
2 39285   0.0667  35.7949 0002639  43.1919 159.2060  1.00273874 35410
SES-8                   
1 39460U 13071A   23165.01299263 -.00000267  00000+0  00000+0 0  9997
2 39460   0.0347 269.8105 0002822 182.8024 269.1058  1.00269984 34858
ASTRA 5B                
1 39617U 14011B   23164.96507911  .00000157  00000+0  00000+0 0  9998
2 39617   0.0509 317.7696 0003880 145.2612 177.8812  1.00270621 33842
O3B FM3                 
1 40079U 14038A   23164.70765238 -.00000020  00000+0  00000+0 0  9991
2 40079   0.0444   8.9965 0001913  11.9003 339.1102  5.00116692158046
O3B FM7                 
1 40080U 14038B   23164.65412300 -.00000020  00000+0  00000+0 0  9996
2 40080   0.0408  12.5877 0004335  81.4524 266.0086  5.00115788162872
O3B FM6                 
1 40081U 14038C   23164.68064965 -.00000020  00000+0  00000+0 0  9990
2 40081   0.0450  10.0318 0002738  70.3772 279.6212  5.00115276162828
O3B FM8                 
1 40082U 14038D   23164.73433341 -.00000020  00000+0  00000+0 0  9995
2 40082   0.0460  13.7844 0002585  68.5768 277.6674  5.00115891162944
O3B FM10                
1 40348U 14083A   23164.76068555 -.00000021  00000+0  00000+0 0  9995
2 40348   0.0507   1.5386 0002674  80.2067 278.2842  5.00115283154893
O3B FM11                
1 40349U 14083B   23164.77403058 -.00000020  00000+0  00000+0 0  9997
2 40349   0.0466 358.8188 0003388  82.5857 278.6332  5.00115494154916
O3B FM12                
1 40350U 14083C   23164.60140021 -.00000020  00000+0  00000+0 0  9999
2 40350   0.0467   0.0322 0002823  78.1563 281.8424  5.00115402154910
O3B FM9                 
1 40351U 14083D   23164.62786272 -.00000020  00000+0  00000+0 0  9996
2 40351   0.0458 357.8129 0002756  83.7901 278.4275  5.00116134155068
ASTRA 2G                
1 40364U 14089A   23165.20188233  .00000152  00000+0  00000+0 0  9999
2 40364   0.0419  26.8899 0004736  37.6234 298.5652  1.00272303 31009
SES-9                   
1 41380U 16013A   23164.87094595 -.00000344  00000+0  00000+0 0  9990
2 41380   0.0189 308.0024 0002205 138.3023 237.4438  1.00270577 26415
SES-10                  
1 42432U 17017A   23165.48119354 -.00000270  00000+0  00000+0 0  9991
2 42432   0.0235  48.2691 0002770  40.1616 280.4061  1.00269509 22716
SES-15                  
1 42709U 17026A   23165.41975455  .00000062  00000+0  00000+0 0  9991
2 42709   0.0234  27.6665 0000194  50.5936 206.1437  1.00269785 23160
SES-11 (ECHOSTAR 105)   
1 42967U 17063A   23164.82851743 -.00000087  00000+0  00000+0 0  9993
2 42967   0.0327  75.1098 0002142 343.1466  36.9138  1.00271122 20703
SES-14                  
1 43175U 18012B   23165.18382810 -.00000276  00000+0  00000+0 0  9994
2 43175   0.0129 328.6175 0000981 118.5355 193.7439  1.00270681 20027
O3B FM15                
1 43231U 18024A   23164.69375457 -.00000020  00000+0  00000+0 0  9991
2 43231   0.0539   2.8186 0002904  75.1653 282.0479  5.00114462 96021
O3B FM16                
1 43232U 18024B   23164.54733570 -.00000020  00000+0  00000+0 0  9990
2 43232   0.0581   3.2459 0002935  75.4469 281.3394  5.00116237 95938
O3B FM14                
1 43233U 18024C   23164.38738863 -.00000020  00000+0  00000+0 0  9993
2 43233   0.0594   4.1505 0003080  76.5141 279.3694  5.00115657 95931
O3B FM13                
1 43234U 18024D   23164.24115021 -.00000020  00000+0  00000+0 0  9994
2 43234   0.0565 342.7127 0003265  82.2794 295.0411  5.00115414 96163
SES-12                  
1 43488U 18049A   23165.01299263 -.00000267  00000+0  00000+0 0  9992
2 43488   0.0253  43.9718 0000723 232.2860  85.4619  1.00270490 18393
O3B FM20                
1 44112U 19020A   23164.81385324 -.00000021  00000+0  00000+0 0  9996
2 44112   0.0506   2.3095 0003250  72.8463 284.8795  5.00115663 76568
O3B FM19                
1 44113U 19020B   23164.64093765 -.00000020  00000+0  00000+0 0  9992
2 44113   0.0420 348.7312 0004011 107.4207 263.8931  5.00115359 76639
O3B FM17                
1 44114U 19020C   23165.12094641 -.00000021  00000+0  00000+0 0  9992
2 44114   0.0608  19.8414 0002935  56.9301 283.2605  5.00115870 76668
O3B FM18                
1 44115U 19020D   23164.66760922 -.00000020  00000+0  00000+0 0  9992
2 44115   0.0504   1.8628 0002820  78.3708 279.7974  5.00115959 76649
SES-17                  
1 49332U 21095A   23165.43858869 -.00000270  00000+0  00000+0 0  9994
2 49332   0.0143  44.4637 0000896  42.8354 265.9686  1.00269608  6828
SES-22                  
1 52933U 22071A   23165.55882191  .00000091  00000+0  00000+0 0  9998
2 52933   0.0118  37.4404 0001053  48.8335 242.4641  1.00271996  3546
SES-20                  
1 53960U 22123A   23164.68551448 -.00000099  00000+0  00000+0 0  9997
2 53960   0.0435 144.5559 0001951 288.0975 332.7458  1.00269837  2511
SES-21                  
1 53961U 22123B   23164.95282529  .00000070  00000+0  00000+0 0  9997
2 53961   0.0290  11.8479 0000882  34.1287  68.1255  1.00274745  2526
O3B MPOWER F1           
1 54755U 22174A   23165.46488135 -.00000021  00000+0  00000+0 0  9990
2 54755   0.0375   6.4901 0001695 166.4041  43.8480  5.00112315 10372
O3B MPOWER F2           
1 54756U 22174B   23165.25546133 -.00000021  00000+0  00000+0 0  9991
2 54756   0.0367  11.9104 0003309 143.2928 204.8119  5.00114617 10455
SES-18                  
1 55970U 23038A   23164.61383809 -.00000100  00000+0  00000+0 0  9996
2 55970   0.0316 268.4318 0000178  36.7522  74.3516  1.00272029  1078
SES-19                  
1 55971U 23038B   23165.46367295  .00000090  00000+0  00000+0 0  9999
2 55971   0.0432  88.6880 0001664 354.5053 211.2989  1.00271663  1063
O3B MPOWER F4           
1 56367U 23059A   23156.69809407 -.00000004  00000+0 -32900-1 0  9996
2 56367   5.3724 332.1046 1264771 272.7802  72.8428  6.35715127  2689
O3B MPOWER F3           
1 56368U 23059B   23138.76801162  .00000049  00000+0  11785-1 0  9990
2 56368   7.1748 354.0575 1662970 233.1321 110.4605  6.87562621  1474
